TIGRISAT                
1 40043U 14033AK  26066.36597304  .00003858  00000+0  45148-3 0  9997
2 40043  97.7670 218.8238 0050507  49.8365 310.7256 14.84714144630510
AEROCUBE 6A             
1 40045U 14033AM  26065.92260729  .00007539  00000+0  65344-3 0  9998
2 40045  97.7120 234.1022 0039067 358.8215   1.2908 14.96791440631311
AEROCUBE 6B             
1 40046U 14033AN  26066.42264034  .00010303  00000+0  86006-3 0  9999
2 40046  97.7124 234.1843 0037499 350.1589   9.8895 14.98194161631513
CANX-4                  
1 40055U 14034C   26066.61663581  .00001654  00000+0  22040-3 0  9998
2 40055  98.3279 298.1247 0012477 343.3324  16.7475 14.81056190629495
CANX-5                  
1 40056U 14034D   26066.61623213  .00001655  00000+0  22039-3 0  9996
2 40056  98.3280 298.1620 0012477 343.4704  16.6099 14.81072890620303
UKUBE-1                 
1 40074U 14037F   26066.49932047  .00015263  00000+0  89858-3 0  9995
2 40074  98.4234  59.2386 0003061 112.4799 247.6753 15.11735287633188
BRITE-PL2 (HEWELIUSZ)   
1 40119U 14049B   26066.53014006  .00003902  00000+0  36912-3 0  9999
2 40119  97.8983 177.8476 0015608  87.8678 272.4329 14.94171658626262
AEROCUBE 5C             
1 40965U 15058B   26066.56540606  .00005630  00000+0  49881-3 0  9991
2 40965  64.7673 218.5807 0130801 103.3337 258.2398 14.90833969350505
AEROCUBE 7              
1 40966U 15058C   26066.64351318  .00007408  00000+0  59932-3 0  9994
2 40966  64.7628 202.6655 0120701 102.3800 259.0855 14.94870461350771
FOX-1A (AO-85)          
1 40967U 15058D   26066.64643629  .00005788  00000+0  52136-3 0  9992
2 40967  64.7744 234.3848 0129017  96.7392 264.8421 14.90334877 98435
SINOD-D 1               
1 40968U 15058E   26066.63305588  .00007663  00000+0  62177-3 0  9991
2 40968  64.7757 216.7257 0117350  94.0545 267.3992 14.95024414101474
SNAP-3 ALICE            
1 40970U 15058G   26066.50170398  .00083862  00000+0  18082-2 0  9999
2 40970  64.7556  90.7062 0037410  69.5362 290.9786 15.43341717101116
LMRST-SAT               
1 40971U 15058H   26066.64347798  .00005648  00000+0  51153-3 0  9998
2 40971  64.7752 230.5438 0131118  98.6789 262.9201 14.89967457 98426
SNAP-3 EDDIE            
1 40972U 15058J   26066.43513445  .00084776  00000+0  17649-2 0  9990
2 40972  64.7477  82.3353 0038587  74.6020 285.9376 15.44316875103236
PROPCUBE 3              
1 40973U 15058K   26066.58929239  .00006750  00000+0  56382-3 0  9993
2 40973  64.7691 209.7822 0123686 100.4811 261.0267 14.93501957 99623
BISONSAT                
1 40974U 15058L   26066.57689328  .00016197  00000+0  83609-3 0  9993
2 40974  64.7598 141.5648 0079437  91.5763 269.4462 15.13730891100221
