[{"OBJECT_NAME":"TIGRISAT","OBJECT_ID":"2014-033AK","EPOCH":"2026-03-07T08:47:00.070656","MEAN_MOTION":14.84714144,"ECCENTRICITY":0.00505071,"INCLINATION":97.767,"RA_OF_ASC_NODE":218.8238,"ARG_OF_PERICENTER":49.8365,"MEAN_ANOMALY":310.7256,"EPHEMERIS_TYPE":0,"CLASSIFICATION_TYPE":"U","NORAD_CAT_ID":40043,"ELEMENT_SET_NO":999,"REV_AT_EPOCH":63051,"BSTAR":0.00045147506,"MEAN_MOTION_DOT":3.858e-5,"MEAN_MOTION_DDOT":0},{"OBJECT_NAME":"AEROCUBE 6A","OBJECT_ID":"2014-033AM","EPOCH":"2026-03-06T22:08:33.269856","MEAN_MOTION":14.9679144,"ECCENTRICITY":0.00390677,"INCLINATION":97.712,"RA_OF_ASC_NODE":234.1022,"ARG_OF_PERICENTER":358.8215,"MEAN_ANOMALY":1.2908,"EPHEMERIS_TYPE":0,"CLASSIFICATION_TYPE":"U","NORAD_CAT_ID":40045,"ELEMENT_SET_NO":999,"REV_AT_EPOCH":63131,"BSTAR":0.00065343981,"MEAN_MOTION_DOT":7.539e-5,"MEAN_MOTION_DDOT":0},{"OBJECT_NAME":"AEROCUBE 6B","OBJECT_ID":"2014-033AN","EPOCH":"2026-03-07T10:08:36.125376","MEAN_MOTION":14.98194161,"ECCENTRICITY":0.00374995,"INCLINATION":97.7124,"RA_OF_ASC_NODE":234.1843,"ARG_OF_PERICENTER":350.1589,"MEAN_ANOMALY":9.8895,"EPHEMERIS_TYPE":0,"CLASSIFICATION_TYPE":"U","NORAD_CAT_ID":40046,"ELEMENT_SET_NO":999,"REV_AT_EPOCH":63151,"BSTAR":0.00086006116,"MEAN_MOTION_DOT":0.00010303,"MEAN_MOTION_DDOT":0},{"OBJECT_NAME":"CANX-4","OBJECT_ID":"2014-034C","EPOCH":"2026-03-07T14:47:57.333984","MEAN_MOTION":14.8105619,"ECCENTRICITY":0.00124778,"INCLINATION":98.3279,"RA_OF_ASC_NODE":298.1247,"ARG_OF_PERICENTER":343.3324,"MEAN_ANOMALY":16.7475,"EPHEMERIS_TYPE":0,"CLASSIFICATION_TYPE":"U","NORAD_CAT_ID":40055,"ELEMENT_SET_NO":999,"REV_AT_EPOCH":62949,"BSTAR":0.00022040014,"MEAN_MOTION_DOT":1.654e-5,"MEAN_MOTION_DDOT":0},{"OBJECT_NAME":"CANX-5","OBJECT_ID":"2014-034D","EPOCH":"2026-03-07T14:47:22.456032","MEAN_MOTION":14.8107289,"ECCENTRICITY":0.00124777,"INCLINATION":98.328,"RA_OF_ASC_NODE":298.162,"ARG_OF_PERICENTER":343.4704,"MEAN_ANOMALY":16.6099,"EPHEMERIS_TYPE":0,"CLASSIFICATION_TYPE":"U","NORAD_CAT_ID":40056,"ELEMENT_SET_NO":999,"REV_AT_EPOCH":62030,"BSTAR":0.0002203943,"MEAN_MOTION_DOT":1.655e-5,"MEAN_MOTION_DDOT":0},{"OBJECT_NAME":"UKUBE-1","OBJECT_ID":"2014-037F","EPOCH":"2026-03-07T11:59:01.288608","MEAN_MOTION":15.11735287,"ECCENTRICITY":0.00030613,"INCLINATION":98.4234,"RA_OF_ASC_NODE":59.2386,"ARG_OF_PERICENTER":112.4799,"MEAN_ANOMALY":247.6753,"EPHEMERIS_TYPE":0,"CLASSIFICATION_TYPE":"U","NORAD_CAT_ID":40074,"ELEMENT_SET_NO":999,"REV_AT_EPOCH":63318,"BSTAR":0.00089857745,"MEAN_MOTION_DOT":0.00015263,"MEAN_MOTION_DDOT":0},{"OBJECT_NAME":"BRITE-PL2 (HEWELIUSZ)","OBJECT_ID":"2014-049B","EPOCH":"2026-03-07T12:43:24.101184","MEAN_MOTION":14.94171658,"ECCENTRICITY":0.00156081,"INCLINATION":97.8983,"RA_OF_ASC_NODE":177.8476,"ARG_OF_PERICENTER":87.8678,"MEAN_ANOMALY":272.4329,"EPHEMERIS_TYPE":0,"CLASSIFICATION_TYPE":"U","NORAD_CAT_ID":40119,"ELEMENT_SET_NO":999,"REV_AT_EPOCH":62626,"BSTAR":0.00036912175,"MEAN_MOTION_DOT":3.902e-5,"MEAN_MOTION_DDOT":0},{"OBJECT_NAME":"AEROCUBE 5C","OBJECT_ID":"2015-058B","EPOCH":"2026-03-07T13:34:11.083584","MEAN_MOTION":14.90833969,"ECCENTRICITY":0.01308017,"INCLINATION":64.7673,"RA_OF_ASC_NODE":218.5807,"ARG_OF_PERICENTER":103.3337,"MEAN_ANOMALY":258.2398,"EPHEMERIS_TYPE":0,"CLASSIFICATION_TYPE":"U","NORAD_CAT_ID":40965,"ELEMENT_SET_NO":999,"REV_AT_EPOCH":35050,"BSTAR":0.0004988141,"MEAN_MOTION_DOT":5.63e-5,"MEAN_MOTION_DDOT":0},{"OBJECT_NAME":"AEROCUBE 7","OBJECT_ID":"2015-058C","EPOCH":"2026-03-07T15:26:39.538752","MEAN_MOTION":14.94870461,"ECCENTRICITY":0.01207014,"INCLINATION":64.7628,"RA_OF_ASC_NODE":202.6655,"ARG_OF_PERICENTER":102.38,"MEAN_ANOMALY":259.0855,"EPHEMERIS_TYPE":0,"CLASSIFICATION_TYPE":"U","NORAD_CAT_ID":40966,"ELEMENT_SET_NO":999,"REV_AT_EPOCH":35077,"BSTAR":0.00059931616,"MEAN_MOTION_DOT":7.408e-5,"MEAN_MOTION_DDOT":0},{"OBJECT_NAME":"FOX-1A (AO-85)","OBJECT_ID":"2015-058D","EPOCH":"2026-03-07T15:30:52.095456","MEAN_MOTION":14.90334877,"ECCENTRICITY":0.01290177,"INCLINATION":64.7744,"RA_OF_ASC_NODE":234.3848,"ARG_OF_PERICENTER":96.7392,"MEAN_ANOMALY":264.8421,"EPHEMERIS_TYPE":0,"CLASSIFICATION_TYPE":"U","NORAD_CAT_ID":40967,"ELEMENT_SET_NO":999,"REV_AT_EPOCH":9843,"BSTAR":0.00052136363,"MEAN_MOTION_DOT":5.788e-5,"MEAN_MOTION_DDOT":0},{"OBJECT_NAME":"SINOD-D 1","OBJECT_ID":"2015-058E","EPOCH":"2026-03-07T15:11:36.028032","MEAN_MOTION":14.95024414,"ECCENTRICITY":0.01173501,"INCLINATION":64.7757,"RA_OF_ASC_NODE":216.7257,"ARG_OF_PERICENTER":94.0545,"MEAN_ANOMALY":267.3992,"EPHEMERIS_TYPE":0,"CLASSIFICATION_TYPE":"U","NORAD_CAT_ID":40968,"ELEMENT_SET_NO":999,"REV_AT_EPOCH":10147,"BSTAR":0.00062177229,"MEAN_MOTION_DOT":7.663e-5,"MEAN_MOTION_DDOT":0},{"OBJECT_NAME":"SNAP-3 ALICE","OBJECT_ID":"2015-058G","EPOCH":"2026-03-07T12:02:27.223872","MEAN_MOTION":15.43341717,"ECCENTRICITY":0.003741,"INCLINATION":64.7556,"RA_OF_ASC_NODE":90.7062,"ARG_OF_PERICENTER":69.5362,"MEAN_ANOMALY":290.9786,"EPHEMERIS_TYPE":0,"CLASSIFICATION_TYPE":"U","NORAD_CAT_ID":40970,"ELEMENT_SET_NO":999,"REV_AT_EPOCH":10111,"BSTAR":0.0018082086,"MEAN_MOTION_DOT":0.00083862,"MEAN_MOTION_DDOT":0},{"OBJECT_NAME":"LMRST-SAT","OBJECT_ID":"2015-058H","EPOCH":"2026-03-07T15:26:36.497472","MEAN_MOTION":14.89967457,"ECCENTRICITY":0.0131118,"INCLINATION":64.7752,"RA_OF_ASC_NODE":230.5438,"ARG_OF_PERICENTER":98.6789,"MEAN_ANOMALY":262.9201,"EPHEMERIS_TYPE":0,"CLASSIFICATION_TYPE":"U","NORAD_CAT_ID":40971,"ELEMENT_SET_NO":999,"REV_AT_EPOCH":9842,"BSTAR":0.00051152569,"MEAN_MOTION_DOT":5.648e-5,"MEAN_MOTION_DDOT":0},{"OBJECT_NAME":"SNAP-3 EDDIE","OBJECT_ID":"2015-058J","EPOCH":"2026-03-07T10:26:35.616480","MEAN_MOTION":15.44316875,"ECCENTRICITY":0.00385877,"INCLINATION":64.7477,"RA_OF_ASC_NODE":82.3353,"ARG_OF_PERICENTER":74.602,"MEAN_ANOMALY":285.9376,"EPHEMERIS_TYPE":0,"CLASSIFICATION_TYPE":"U","NORAD_CAT_ID":40972,"ELEMENT_SET_NO":999,"REV_AT_EPOCH":10323,"BSTAR":0.0017649372,"MEAN_MOTION_DOT":0.00084776,"MEAN_MOTION_DDOT":0},{"OBJECT_NAME":"PROPCUBE 3","OBJECT_ID":"2015-058K","EPOCH":"2026-03-07T14:08:34.862496","MEAN_MOTION":14.93501957,"ECCENTRICITY":0.01236864,"INCLINATION":64.7691,"RA_OF_ASC_NODE":209.7822,"ARG_OF_PERICENTER":100.4811,"MEAN_ANOMALY":261.0267,"EPHEMERIS_TYPE":0,"CLASSIFICATION_TYPE":"U","NORAD_CAT_ID":40973,"ELEMENT_SET_NO":999,"REV_AT_EPOCH":9962,"BSTAR":0.00056382494,"MEAN_MOTION_DOT":6.75e-5,"MEAN_MOTION_DDOT":0},{"OBJECT_NAME":"BISONSAT","OBJECT_ID":"2015-058L","EPOCH":"2026-03-07T13:50:43.579392","MEAN_MOTION":15.13730891,"ECCENTRICITY":0.00794371,"INCLINATION":64.7598,"RA_OF_ASC_NODE":141.5648,"ARG_OF_PERICENTER":91.5763,"MEAN_ANOMALY":269.4462,"EPHEMERIS_TYPE":0,"CLASSIFICATION_TYPE":"U","NORAD_CAT_ID":40974,"ELEMENT_SET_NO":999,"REV_AT_EPOCH":10022,"BSTAR":0.00083609294,"MEAN_MOTION_DOT":0.00016197,"MEAN_MOTION_DDOT":0}]
